{"type": "FeatureCollection", "features": [ {"type": "Feature", "properties": {"norad_id": 28649, "name": "IRS-P5 (CARTOSAT-1)", "group": "resource", "lat": 19.375041495765654, "lon": -161.1844505526364, "alt_km": 597.1803938108624, "timestamp": "2025-12-15T20:48:53.541632+00:00", "meta": {"OBJECT_NAME": "IRS-P5 (CARTOSAT-1)", "OBJECT_ID": "2005-017A", "EPOCH": "2025-12-14T21:32:23.402112", "MEAN_MOTION": 14.90413613, "ECCENTRICITY": 0.00011183, "INCLINATION": 97.5498, "RA_OF_ASC_NODE": 15.2154, "ARG_OF_PERICENTER": 48.5747, "MEAN_ANOMALY": 311.5568, "EPHEMERIS_TYPE": 0, "CLASSIFICATION_TYPE": "U", "NORAD_CAT_ID": 28649, "ELEMENT_SET_NO": 999, "REV_AT_EPOCH": 11636, "BSTAR": 0.00019611082, "MEAN_MOTION_DOT": 1.858e-05, "MEAN_MOTION_DDOT": 0}, "tle": {"line1": "1 28649U 05017A   25348.89749308  .00001858  00000+0  19611-3 0  9994", "line2": "2 28649  97.5498  15.2154 0001118  48.5747 311.5568 14.90413613116365"}}, "geometry": {"type": "Point", "coordinates": [-161.1844505526364, 19.375041495765654]}}, {"type": "Feature", "properties": {"norad_id": 28893, "name": "SINAH 1", "group": "resource", "lat": -36.3919460073567, "lon": -67.71405425239891, "alt_km": 686.544450433039, "timestamp": "2025-12-15T20:48:53.541642+00:00", "meta": {"OBJECT_NAME": "SINAH 1", "OBJECT_ID": "2005-043D", "EPOCH": "2025-12-14T22:30:16.651872", "MEAN_MOTION": 14.63964877, "ECCENTRICITY": 0.00154483, "INCLINATION": 98.2604, "RA_OF_ASC_NODE": 117.5008, "ARG_OF_PERICENTER": 130.5297, "MEAN_ANOMALY": 229.7253, "EPHEMERIS_TYPE": 0, "CLASSIFICATION_TYPE": "U", "NORAD_CAT_ID": 28893, "ELEMENT_SET_NO": 999, "REV_AT_EPOCH": 7356, "BSTAR": 0.00010359399, "MEAN_MOTION_DOT": 4.94e-06, "MEAN_MOTION_DDOT": 0}, "tle": {"line1": "1 28893U 05043D   25348.93769273  .00000494  00000+0  10359-3 0  9997", "line2": "2 28893  98.2604 117.5008 0015448 130.5297 229.7253 14.63964877 73568"}}, "geometry": {"type": "Point", "coordinates": [-67.71405425239891, -36.3919460073567]}}, {"type": "Feature", "properties": {"norad_id": 29079, "name": "EROS B", "group": "resource", "lat": -35.46786328171921, "lon": 111.86563759574688, "alt_km": 365.72994500226196, "timestamp": "2025-12-15T20:48:53.541653+00:00", "meta": {"OBJECT_NAME": "EROS B", "OBJECT_ID": "2006-014A", "EPOCH": "2025-12-14T22:00:32.669856", "MEAN_MOTION": 15.69012512, "ECCENTRICITY": 0.00026628, "INCLINATION": 97.346, "RA_OF_ASC_NODE": 105.5954, "ARG_OF_PERICENTER": 311.2775, "MEAN_ANOMALY": 48.8257, "EPHEMERIS_TYPE": 0, "CLASSIFICATION_TYPE": "U", "NORAD_CAT_ID": 29079, "ELEMENT_SET_NO": 999, "REV_AT_EPOCH": 9114, "BSTAR": 0.0010265229, "MEAN_MOTION_DOT": 0.0011966, "MEAN_MOTION_DDOT": 0}, "tle": {"line1": "1 29079U 06014A   25348.91704479  .00119660  00000+0  10265-2 0  9999", "line2": "2 29079  97.3460 105.5954 0002662 311.2775  48.8257 15.69012512 91140"}}, "geometry": {"type": "Point", "coordinates": [111.86563759574688, -35.46786328171921]}}, {"type": "Feature", "properties": {"norad_id": 29228, "name": "RESURS-DK 1", "group": "resource", "lat": -30.15355938939441, "lon": 81.49685646747254, "alt_km": 533.4343240214384, "timestamp": "2025-12-15T20:48:53.541663+00:00", "meta": {"OBJECT_NAME": "RESURS-DK 1", "OBJECT_ID": "2006-021A", "EPOCH": "2025-12-14T17:58:07.820832", "MEAN_MOTION": 15.12174507, "ECCENTRICITY": 0.00070406, "INCLINATION": 69.9334, "RA_OF_ASC_NODE": 96.6465, "ARG_OF_PERICENTER": 257.4987, "MEAN_ANOMALY": 102.5391, "EPHEMERIS_TYPE": 0, "CLASSIFICATION_TYPE": "U", "NORAD_CAT_ID": 29228, "ELEMENT_SET_NO": 999, "REV_AT_EPOCH": 7468, "BSTAR": 0.00016722153, "MEAN_MOTION_DOT": 2.786e-05, "MEAN_MOTION_DDOT": 0}, "tle": {"line1": "1 29228U 06021A   25348.74870163  .00002786  00000+0  16722-3 0  9993", "line2": "2 29228  69.9334  96.6465 0007040 257.4987 102.5391 15.12174507 74687"}}, "geometry": {"type": "Point", "coordinates": [81.49685646747254, -30.15355938939441]}}, {"type": "Feature", "properties": {"norad_id": 29268, "name": "ARIRANG-2 (KOMPSAT-2)", "group": "resource", "lat": 51.389019574743934, "lon": 8.104928430619548, "alt_km": 683.2781730446432, "timestamp": "2025-12-15T20:48:53.541674+00:00", "meta": {"OBJECT_NAME": "ARIRANG-2 (KOMPSAT-2)", "OBJECT_ID": "2006-031A", "EPOCH": "2025-12-14T23:37:26.627808", "MEAN_MOTION": 14.64496672, "ECCENTRICITY": 0.00133943, "INCLINATION": 97.8265, "RA_OF_ASC_NODE": 177.3477, "ARG_OF_PERICENTER": 301.588, "MEAN_ANOMALY": 214.0173, "EPHEMERIS_TYPE": 0, "CLASSIFICATION_TYPE": "U", "NORAD_CAT_ID": 29268, "ELEMENT_SET_NO": 999, "REV_AT_EPOCH": 3451, "BSTAR": 0.00011039716, "MEAN_MOTION_DOT": 5.4e-06, "MEAN_MOTION_DDOT": 0}, "tle": {"line1": "1 29268U 06031A   25348.98433597  .00000540  00000+0  11040-3 0  9994", "line2": "2 29268  97.8265 177.3477 0013394 301.5880 214.0173 14.64496672 34517"}}, "geometry": {"type": "Point", "coordinates": [8.104928430619548, 51.389019574743934]}}, {"type": "Feature", "properties": {"norad_id": 29709, "name": "LAPAN-TUBSAT", "group": "resource", "lat": -58.57018792071483, "lon": -6.390954015082674, "alt_km": 623.8967733420986, "timestamp": "2025-12-15T20:48:53.541684+00:00", "meta": {"OBJECT_NAME": "LAPAN-TUBSAT", "OBJECT_ID": "2007-001A", "EPOCH": "2025-12-14T22:27:10.046016", "MEAN_MOTION": 14.85676314, "ECCENTRICITY": 0.00135616, "INCLINATION": 98.1259, "RA_OF_ASC_NODE": 339.1372, "ARG_OF_PERICENTER": 67.7807, "MEAN_ANOMALY": 292.4845, "EPHEMERIS_TYPE": 0, "CLASSIFICATION_TYPE": "U", "NORAD_CAT_ID": 29709, "ELEMENT_SET_NO": 999, "REV_AT_EPOCH": 2379, "BSTAR": 0.00016398051, "MEAN_MOTION_DOT": 1.366e-05, "MEAN_MOTION_DDOT": 0}, "tle": {"line1": "1 29709U 07001A   25348.93553294  .00001366  00000+0  16398-3 0  9992", "line2": "2 29709  98.1259 339.1372 0013561  67.7807 292.4845 14.85676314 23792"}}, "geometry": {"type": "Point", "coordinates": [-6.390954015082674, -58.57018792071483]}}, {"type": "Feature", "properties": {"norad_id": 31113, "name": "HAIYANG-1B", "group": "resource", "lat": -67.84118378501584, "lon": -4.894086168478614, "alt_km": 797.2059497252794, "timestamp": "2025-12-15T20:48:53.541695+00:00", "meta": {"OBJECT_NAME": "HAIYANG-1B", "OBJECT_ID": "2007-010A", "EPOCH": "2025-12-14T21:38:39.078816", "MEAN_MOTION": 14.30965742, "ECCENTRICITY": 0.00141677, "INCLINATION": 98.3316, "RA_OF_ASC_NODE": 333.0907, "ARG_OF_PERICENTER": 31.8611, "MEAN_ANOMALY": 328.3427, "EPHEMERIS_TYPE": 0, "CLASSIFICATION_TYPE": "U", "NORAD_CAT_ID": 31113, "ELEMENT_SET_NO": 999, "REV_AT_EPOCH": 97427, "BSTAR": 6.8708988e-05, "MEAN_MOTION_DOT": 1.39e-06, "MEAN_MOTION_DDOT": 0}, "tle": {"line1": "1 31113U 07010A   25348.90184119  .00000139  00000+0  68709-4 0  9998", "line2": "2 31113  98.3316 333.0907 0014167  31.8611 328.3427 14.30965742974274"}}, "geometry": {"type": "Point", "coordinates": [-4.894086168478614, -67.84118378501584]}}, {"type": "Feature", "properties": {"norad_id": 31598, "name": "COSMO-SKYMED 1", "group": "resource", "lat": 10.019207479423601, "lon": 173.88354755308686, "alt_km": 581.3432456235068, "timestamp": "2025-12-15T20:48:53.541705+00:00", "meta": {"OBJECT_NAME": "COSMO-SKYMED 1", "OBJECT_ID": "2007-023A", "EPOCH": "2025-12-14T22:17:34.012032", "MEAN_MOTION": 14.95782605, "ECCENTRICITY": 0.00014077, "INCLINATION": 97.8833, "RA_OF_ASC_NODE": 174.3421, "ARG_OF_PERICENTER": 89.9184, "MEAN_ANOMALY": 270.2198, "EPHEMERIS_TYPE": 0, "CLASSIFICATION_TYPE": "U", "NORAD_CAT_ID": 31598, "ELEMENT_SET_NO": 999, "REV_AT_EPOCH": 223, "BSTAR": 0.00030711903, "MEAN_MOTION_DOT": 3.367e-05, "MEAN_MOTION_DDOT": 0}, "tle": {"line1": "1 31598U 07023A   25348.92886588  .00003367  00000+0  30712-3 0  9998", "line2": "2 31598  97.8833 174.3421 0001407  89.9184 270.2198 14.95782605  2232"}}, "geometry": {"type": "Point", "coordinates": [173.88354755308686, 10.019207479423601]}}, {"type": "Feature", "properties": {"norad_id": 31698, "name": "TERRASAR-X", "group": "resource", "lat": -69.85281353460132, "lon": 16.08423922580983, "alt_km": 516.7795150227721, "timestamp": "2025-12-15T20:48:53.541715+00:00", "meta": {"OBJECT_NAME": "TERRASAR-X", "OBJECT_ID": "2007-026A", "EPOCH": "2025-12-14T13:30:41.171328", "MEAN_MOTION": 15.19155649, "ECCENTRICITY": 0.00017638, "INCLINATION": 97.4455, "RA_OF_ASC_NODE": 353.9163, "ARG_OF_PERICENTER": 88.5076, "MEAN_ANOMALY": 271.6361, "EPHEMERIS_TYPE": 0, "CLASSIFICATION_TYPE": "U", "NORAD_CAT_ID": 31698, "ELEMENT_SET_NO": 999, "REV_AT_EPOCH": 2519, "BSTAR": 9.163965e-05, "MEAN_MOTION_DOT": 1.858e-05, "MEAN_MOTION_DDOT": 0}, "tle": {"line1": "1 31698U 07026A   25348.56297652  .00001858  00000+0  91640-4 0  9991", "line2": "2 31698  97.4455 353.9163 0001763  88.5076 271.6361 15.19155649 25193"}}, "geometry": {"type": "Point", "coordinates": [16.08423922580983, -69.85281353460132]}}, {"type": "Feature", "properties": {"norad_id": 32060, "name": "WORLDVIEW-1 (WV-1)", "group": "resource", "lat": -7.3848545379469135, "lon": 108.26659766118081, "alt_km": 495.81789717256015, "timestamp": "2025-12-15T20:48:53.541725+00:00", "meta": {"OBJECT_NAME": "WORLDVIEW-1 (WV-1)", "OBJECT_ID": "2007-041A", "EPOCH": "2025-12-14T21:13:17.942880", "MEAN_MOTION": 15.24730196, "ECCENTRICITY": 8.212e-05, "INCLINATION": 97.3832, "RA_OF_ASC_NODE": 106.3346, "ARG_OF_PERICENTER": 112.8228, "MEAN_ANOMALY": 247.3096, "EPHEMERIS_TYPE": 0, "CLASSIFICATION_TYPE": "U", "NORAD_CAT_ID": 32060, "ELEMENT_SET_NO": 999, "REV_AT_EPOCH": 1480, "BSTAR": 0.00026157834, "MEAN_MOTION_DOT": 6.404e-05, "MEAN_MOTION_DDOT": 0}, "tle": {"line1": "1 32060U 07041A   25348.88423545  .00006404  00000+0  26158-3 0  9992", "line2": "2 32060  97.3832 106.3346 0000821 112.8228 247.3096 15.24730196 14805"}}, "geometry": {"type": "Point", "coordinates": [108.26659766118081, -7.3848545379469135]}}]}